{
  "56834": {
    "noradId": "56834",
    "tle": [
      "1 56834C 23079M   25261.42270833 -.00006341  00000+0 -45782-3 0  2618",
      "2 56834  43.0024 323.1197 0001524 263.9619 128.0424 15.03360583    11"
    ]
  },
  "56835": {
    "noradId": "56835",
    "tle": [
      "1 56835C 23079N   25261.42201389 -.00005383  00000+0 -39713-3 0  2611",
      "2 56835  43.0035 323.2743 0001452 266.7481  59.4299 15.02548259    14"
    ]
  },
  "56836": {
    "noradId": "56836",
    "tle": [
      "1 56836C 23079P   25261.42756944 -.00004679  00000+0 -34527-3 0  2619",
      "2 56836  43.0036 323.1964 0001659 267.1287 107.1977 15.02537481    17"
    ]
  },
  "56837": {
    "noradId": "56837",
    "tle": [
      "1 56837C 23079Q   25261.42548611 -.00008039  00000+0 -59305-3 0  2615",
      "2 56837  43.0035 323.1551 0001716 266.6701 114.3916 15.02550748    12"
    ]
  },
  "56838": {
    "noradId": "56838",
    "tle": [
      "1 56838C 23079R   25261.42479167  .00010813  00000+0  39158-3 0  2610",
      "2 56838  43.0002 286.7978 0001332 264.5141 342.5984 15.27571955    13"
    ]
  },
  "56839": {
    "noradId": "56839",
    "tle": [
      "1 56839C 23079S   25261.42409722  .00000211  00000+0  15588-4 0  2614",
      "2 56839  43.0036 323.1156 0001473 265.6631 125.9247 15.02535055    16"
    ]
  },
  "56840": {
    "noradId": "56840",
    "tle": [
      "1 56840C 23079T   25261.43868056  .00191530  00000+0  39410-2 0  2619",
      "2 56840  42.9936 238.5816 0016109 146.6258 215.7923 15.44754525    12"
    ]
  },
  "56841": {
    "noradId": "56841",
    "tle": [
      "1 56841C 23079U   25261.42479167 -.00004222  00000+0 -15292-3 0  2616",
      "2 56841  43.0020 312.2264 0001432 271.4429  56.6968 15.27579799    16"
    ]
  },
  "56842": {
    "noradId": "56842",
    "tle": [
      "1 56842C 23079V   25261.41993056 -.00000679  00000+0 -50114-4 0  2619",
      "2 56842  43.0040 323.5270 0001662 267.4170 263.3149 15.02532204    15"
    ]
  },
  "56843": {
    "noradId": "56843",
    "tle": [
      "1 56843C 23079W   25261.42409722  .00011651  00000+0  85949-3 0  2616",
      "2 56843  43.0039 323.3343 0001436 274.8914 350.5035 15.02531194    10"
    ]
  },
  "56844": {
    "noradId": "56844",
    "tle": [
      "1 56844C 23079X   25261.42409722  .00002591  00000+0  19119-3 0  2616",
      "2 56844  43.0030 323.6667 0001441 265.6964 215.4612 15.02533458    18"
    ]
  },
  "56876": {
    "noradId": "56876",
    "tle": [
      "1 56876C 23083A   25261.44076389  .00000693  00000+0  51162-4 0  2613",
      "2 56876  43.0026 298.1329 0001443 265.3041 146.9117 15.02538360    19"
    ]
  },
  "56877": {
    "noradId": "56877",
    "tle": [
      "1 56877C 23083B   25261.44284722  .00000885  00000+0  65336-4 0  2617",
      "2 56877  43.0023 298.0187 0001464 264.3074 201.2815 15.02535529    10"
    ]
  },
  "56878": {
    "noradId": "56878",
    "tle": [
      "1 56878C 23083C   25261.44284722  .00002570  00000+0  18964-3 0  2615",
      "2 56878  43.0027 298.1065 0001368 268.6193 160.9176 15.02526536    12"
    ]
  },
  "56879": {
    "noradId": "56879",
    "tle": [
      "1 56879C 23083D   25261.44284722  .00000307  00000+0  22653-4 0  2613",
      "2 56879  43.0028 298.0637 0001479 264.6474 182.9053 15.02536936    12"
    ]
  },
  "56880": {
    "noradId": "56880",
    "tle": [
      "1 56880C 23083E   25261.44631944  .00003740  00000+0  27599-3 0  2614",
      "2 56880  43.0028 297.8264 0001404 265.5938 290.9395 15.02530193    18"
    ]
  },
  "56881": {
    "noradId": "56881",
    "tle": [
      "1 56881C 23083F   25261.44631944  .00004465  00000+0  32951-3 0  2618",
      "2 56881  43.0028 298.0139 0001355 268.2817 210.1084 15.02526176    19"
    ]
  },
  "56882": {
    "noradId": "56882",
    "tle": [
      "1 56882C 23083G   25261.44215278 -.00003987  00000+0 -29418-3 0  2611",
      "2 56882  43.0021 297.8636 0001457 264.6678 263.2719 15.02543185    13"
    ]
  },
  "56883": {
    "noradId": "56883",
    "tle": [
      "1 56883C 23083H   25261.44770833  .00005170  00000+0  38144-3 0  2615",
      "2 56883  43.0029 297.9602 0001337 268.8426 235.1026 15.02531075    14"
    ]
  },
  "56884": {
    "noradId": "56884",
    "tle": [
      "1 56884C 23083J   25261.44423611 -.00002591  00000+0 -19119-3 0  2612",
      "2 56884  43.0023 297.7656 0001491 265.0182 310.2694 15.02541394    16"
    ]
  },
  "56885": {
    "noradId": "56885",
    "tle": [
      "1 56885C 23083K   25261.44354167  .00003801  00000+0  28049-3 0  2617",
      "2 56885  43.0027 297.9402 0001423 269.3166 230.1005 15.02531232    12"
    ]
  },
  "56886": {
    "noradId": "56886",
    "tle": [
      "1 56886C 23083L   25261.44840278 -.00002260  00000+0 -16671-3 0  2619",
      "2 56886  43.0025 297.7293 0001528 263.6120 340.2569 15.02539969    13"
    ]
  },
  "56887": {
    "noradId": "56887",
    "tle": [
      "1 56887C 23083M   25261.44562500  .00007666  00000+0  56564-3 0  2617",
      "2 56887  43.0022 297.8005 0001449 265.5826 299.1890 15.02529833    17"
    ]
  },
  "56888": {
    "noradId": "56888",
    "tle": [
      "1 56888C 23083N   25261.44562500  .00007891  00000+0  58227-3 0  2616",
      "2 56888  43.0030 297.5682 0002562 291.8894   9.0541 15.02526158    17"
    ]
  },
  "56889": {
    "noradId": "56889",
    "tle": [
      "1 56889C 23083P   25261.44423611 -.00108510  00000+0 -79961-2 0  2615",
      "2 56889  43.0024 297.7076 0000755 275.2012 324.0289 15.02692345    11"
    ]
  },
  "56890": {
    "noradId": "56890",
    "tle": [
      "1 56890C 23083Q   25261.44284722  .00006269  00000+0  46287-3 0  2617",
      "2 56890  43.0031 297.5972 0001261 267.1826  12.8265 15.02507494    16"
    ]
  },
  "56891": {
    "noradId": "56891",
    "tle": [
      "1 56891C 23083R   25261.44701389 -.00005454  00000+0 -40237-3 0  2617",
      "2 56891  43.0022 297.6487 0001540 266.7287   5.6746 15.02545637    10"
    ]
  },
  "56892": {
    "noradId": "56892",
    "tle": [
      "1 56892C 23083S   25261.44215278 -.00001017  00000+0 -75011-4 0  2615",
      "2 56892  43.0026 297.5023 0001464 264.9980  53.2105 15.02540332    10"
    ]
  },
  "56893": {
    "noradId": "56893",
    "tle": [
      "1 56893C 23083T   25261.44215278  .00002030  00000+0  14979-3 0  2615",
      "2 56893  43.0026 297.6329 0001552 266.5245 357.5786 15.02537879    18"
    ]
  },
  "56894": {
    "noradId": "56894",
    "tle": [
      "1 56894C 23083U   25261.44145833 -.00000264  00000+0 -19481-4 0  2618",
      "2 56894  43.0028 297.5207 0001513 266.3500  42.0868 15.02539418    12"
    ]
  },
  "56895": {
    "noradId": "56895",
    "tle": [
      "1 56895C 23083V   25261.44631944 -.00003435  00000+0 -25341-3 0  2616",
      "2 56895  43.0027 297.4531 0001459 263.7817  89.0123 15.02542875    18"
    ]
  },
  "56896": {
    "noradId": "56896",
    "tle": [
      "1 56896C 23083W   25261.44770833  .00008320  00000+0  61383-3 0  2610",
      "2 56896  43.0030 297.3801 0001490 269.9020 114.4527 15.02530863    16"
    ]
  },
  "56897": {
    "noradId": "56897",
    "tle": [
      "1 56897C 23083X   25261.44215278  .00006106  00000+0  45056-3 0  2617",
      "2 56897  43.0023 297.4566 0001424 270.3594  65.8953 15.02530514    12"
    ]
  },
  "56898": {
    "noradId": "56898",
    "tle": [
      "1 56898C 23083Y   25261.44076389  .00000567  00000+0  41828-4 0  2615",
      "2 56898  43.0031 297.3339 0001438 268.0011 114.8455 15.02525947    18"
    ]
  },
  "56899": {
    "noradId": "56899",
    "tle": [
      "1 56899C 23083Z   25261.44493056  .00001802  00000+0  13302-3 0  2618",
      "2 56899  43.0025 297.3558 0001417 267.9432 119.4311 15.02526395    17"
    ]
  },
  "56900": {
    "noradId": "56900",
    "tle": [
      "1 56900C 23083AA  25261.44354167  .00004537  00000+0  33480-3 0  2617",
      "2 56900  43.0024 285.2324 0001335 265.6866 112.1225 15.02530624    15"
    ]
  },
  "56901": {
    "noradId": "56901",
    "tle": [
      "1 56901C 23083AB  25261.44631944  .00006245  00000+0  46072-3 0  2618",
      "2 56901  43.0031 297.2749 0001444 265.4004 159.5077 15.02534222    19"
    ]
  },
  "56902": {
    "noradId": "56902",
    "tle": [
      "1 56902C 23083AC  25261.44145833  .00006776  00000+0  49993-3 0  2610",
      "2 56902  43.0021 285.2012 0001446 267.4654 117.0889 15.02529694    11"
    ]
  },
  "56903": {
    "noradId": "56903",
    "tle": [
      "1 56903C 23083AD  25261.44701389 -.00000127  00000+0 -93983-5 0  2611",
      "2 56903  43.0031 297.3134 0001497 266.8581 143.7906 15.02539870    13"
    ]
  },
  "56904": {
    "noradId": "56904",
    "tle": [
      "1 56904C 23083AE  25261.44145833 -.00002226  00000+0 -16425-3 0  2614",
      "2 56904  43.0022 284.8966 0001430 262.5439 248.2319 15.02539687    15"
    ]
  },
  "56905": {
    "noradId": "56905",
    "tle": [
      "1 56905C 23083AF  25261.44354167 -.00000654  00000+0 -48260-4 0  2613",
      "2 56905  43.0019 285.1501 0001499 266.2517 147.6130 15.02536710    11"
    ]
  },
  "56906": {
    "noradId": "56906",
    "tle": [
      "1 56906C 23083AG  25261.44284722 -.00007369  00000+0 -54367-3 0  2617",
      "2 56906  43.0025 285.1045 0001529 267.2690 160.8623 15.02546430    13"
    ]
  },
  "56907": {
    "noradId": "56907",
    "tle": [
      "1 56907C 23083AH  25261.44354167 -.00005169  00000+0 -38136-3 0  2611",
      "2 56907  43.0020 285.1185 0001384 264.9368 160.9370 15.02544597    11"
    ]
  },
  "56908": {
    "noradId": "56908",
    "tle": [
      "1 56908C 23083AJ  25261.44770833  .00000964  00000+0  71116-4 0  2616",
      "2 56908  43.0021 284.9499 0001427 266.4297 242.1275 15.02535760    13"
    ]
  },
  "56909": {
    "noradId": "56909",
    "tle": [
      "1 56909C 23083AK  25261.44770833 -.00005864  00000+0 -43261-3 0  2612",
      "2 56909  43.0024 285.1356 0001458 269.0817 161.3283 15.02544857    11"
    ]
  }
}